[
    {
        "Altitude(m)": 617710.6317716565,
        "Argument of Periapsis(deg)": 0.0,
        "Eccentricity": 0.0,
        "Inclination(deg)": 60.0,
        "Latitude(deg)": -41.10263878429374,
        "Longitude(deg)": 124.96661676323976,
        "Mean Anomaly(deg)": -49.09089999999994,
        "RAAN(deg)": 255.0,
        "Satellite Name": "Test1 1141",
        "Satellite Number": 1141,
        "Semi-Major Axis(m)": 6980739.136638005,
        "Time(s)": 0
    },
    {
        "Altitude(m)": 617517.9303327745,
        "Argument of Periapsis(deg)": 0.00010418945913296404,
        "Eccentricity": 0.0,
        "Inclination(deg)": 60.0,
        "Latitude(deg)": -40.6368458701337,
        "Longitude(deg)": 125.46341042895428,
        "Mean Anomaly(deg)": -48.470793854538094,
        "RAAN(deg)": 254.99957995086027,
        "Satellite Name": "Test1 1141",
        "Satellite Number": 1141,
        "Semi-Major Axis(m)": 6980739.136638005,
        "Time(s)": 10
    }
]